{
  "type": "FeatureCollection",
  "features": [
    {
      "type": "Feature",
      "properties": {
        "norad_id": 66412,
        "name": "HULIANWANG DIGUI 13A",
        "group": "last-30-days",
        "lat": -36.165480200788764,
        "lon": 127.80889166947995,
        "alt_km": 831.3019762951635,
        "timestamp": "2025-12-10T20:49:51.343366+00:00",
        "meta_object_name": "HULIANWANG DIGUI 13A",
        "meta_object_id": "2025-258A",
        "meta_epoch": "2025-12-09T03:12:44.519040",
        "meta_mean_motion": 14.19925548,
        "meta_eccentricity": 0.00045892,
        "meta_inclination": 50.0057,
        "meta_ra_of_asc_node": 277.2127,
        "meta_arg_of_pericenter": 347.8692,
        "meta_mean_anomaly": 12.2108,
        "meta_ephemeris_type": 0,
        "meta_classification_type": "U",
        "meta_norad_cat_id": 66412,
        "meta_element_set_no": 999,
        "meta_rev_at_epoch": 414,
        "meta_bstar": 0.00032047821,
        "meta_mean_motion_dot": 5.27e-06,
        "meta_mean_motion_ddot": 0,
        "tle_line1": "1 66412U 25258A   25343.13384860  .00000527  00000+0  32048-3 0  9994",
        "tle_line2": "2 66412  50.0057 277.2127 0004589 347.8692  12.2108 14.19925548  4142"
      },
      "geometry": {
        "type": "Point",
        "coordinates": [
          127.80889166947995,
          -36.165480200788764
        ]
      }
    },
    {
      "type": "Feature",
      "properties": {
        "norad_id": 66413,
        "name": "HULIANWANG DIGUI 13B",
        "group": "last-30-days",
        "lat": 3.0931316629006336,
        "lon": 87.45380025895051,
        "alt_km": 833.4604436268428,
        "timestamp": "2025-12-10T20:49:51.343413+00:00",
        "meta_object_name": "HULIANWANG DIGUI 13B",
        "meta_object_id": "2025-258B",
        "meta_epoch": "2025-12-09T08:30:42.060672",
        "meta_mean_motion": 14.18998764,
        "meta_eccentricity": 0.00064107,
        "meta_inclination": 50.0063,
        "meta_ra_of_asc_node": 276.3756,
        "meta_arg_of_pericenter": 353.6698,
        "meta_mean_anomaly": 6.4131,
        "meta_ephemeris_type": 0,
        "meta_classification_type": "U",
        "meta_norad_cat_id": 66413,
        "meta_element_set_no": 999,
        "meta_rev_at_epoch": 417,
        "meta_bstar": 0.00044989424,
        "meta_mean_motion_dot": 7.88e-06,
        "meta_mean_motion_ddot": 0,
        "tle_line1": "1 66413U 25258B   25343.35465348  .00000788  00000+0  44989-3 0  9996",
        "tle_line2": "2 66413  50.0063 276.3756 0006410 353.6698   6.4131 14.18998764  4177"
      },
      "geometry": {
        "type": "Point",
        "coordinates": [
          87.45380025895051,
          3.0931316629006336
        ]
      }
    },
    {
      "type": "Feature",
      "properties": {
        "norad_id": 66414,
        "name": "HULIANWANG DIGUI 13C",
        "group": "last-30-days",
        "lat": -12.26165611543308,
        "lon": 100.53920327059416,
        "alt_km": 832.8797792059686,
        "timestamp": "2025-12-10T20:49:51.343430+00:00",
        "meta_object_name": "HULIANWANG DIGUI 13C",
        "meta_object_id": "2025-258C",
        "meta_epoch": "2025-12-09T03:21:13.066848",
        "meta_mean_motion": 14.19246085,
        "meta_eccentricity": 0.00047063,
        "meta_inclination": 50.0081,
        "meta_ra_of_asc_node": 277.2503,
        "meta_arg_of_pericenter": 342.5024,
        "meta_mean_anomaly": 17.5724,
        "meta_ephemeris_type": 0,
        "meta_classification_type": "U",
        "meta_norad_cat_id": 66414,
        "meta_element_set_no": 999,
        "meta_rev_at_epoch": 414,
        "meta_bstar": 0.00041183983,
        "meta_mean_motion_dot": 7.11e-06,
        "meta_mean_motion_ddot": 0,
        "tle_line1": "1 66414U 25258C   25343.13973457  .00000711  00000+0  41184-3 0  9998",
        "tle_line2": "2 66414  50.0081 277.2503 0004706 342.5024  17.5724 14.19246085  4145"
      },
      "geometry": {
        "type": "Point",
        "coordinates": [
          100.53920327059416,
          -12.26165611543308
        ]
      }
    },
    {
      "type": "Feature",
      "properties": {
        "norad_id": 66415,
        "name": "HULIANWANG DIGUI 13D",
        "group": "last-30-days",
        "lat": -42.44316424882264,
        "lon": 140.07481999622766,
        "alt_km": 831.0877476084597,
        "timestamp": "2025-12-10T20:49:51.343443+00:00",
        "meta_object_name": "HULIANWANG DIGUI 13D",
        "meta_object_id": "2025-258D",
        "meta_epoch": "2025-12-09T03:09:52.475040",
        "meta_mean_motion": 14.20116062,
        "meta_eccentricity": 0.00047716,
        "meta_inclination": 50.0116,
        "meta_ra_of_asc_node": 277.2068,
        "meta_arg_of_pericenter": 0.2986,
        "meta_mean_anomaly": 359.7928,
        "meta_ephemeris_type": 0,
        "meta_classification_type": "U",
        "meta_norad_cat_id": 66415,
        "meta_element_set_no": 999,
        "meta_rev_at_epoch": 414,
        "meta_bstar": 0.00038203452,
        "meta_mean_motion_dot": 6.62e-06,
        "meta_mean_motion_ddot": 0,
        "tle_line1": "1 66415U 25258D   25343.13185735  .00000662  00000+0  38203-3 0  9996",
        "tle_line2": "2 66415  50.0116 277.2068 0004771   0.2986 359.7928 14.20116062  4148"
      },
      "geometry": {
        "type": "Point",
        "coordinates": [
          140.07481999622766,
          -42.44316424882264
        ]
      }
    },
    {
      "type": "Feature",
      "properties": {
        "norad_id": 66416,
        "name": "HULIANWANG DIGUI 13E",
        "group": "last-30-days",
        "lat": -20.76176639090108,
        "lon": 108.5590813833367,
        "alt_km": 832.6062761503972,
        "timestamp": "2025-12-10T20:49:51.343455+00:00",
        "meta_object_name": "HULIANWANG DIGUI 13E",
        "meta_object_id": "2025-258E",
        "meta_epoch": "2025-12-09T08:22:19.522848",
        "meta_mean_motion": 14.19348736,
        "meta_eccentricity": 0.00039271,
        "meta_inclination": 50.0045,
        "meta_ra_of_asc_node": 276.3517,
        "meta_arg_of_pericenter": 345.3839,
        "meta_mean_anomaly": 14.6958,
        "meta_ephemeris_type": 0,
        "meta_classification_type": "U",
        "meta_norad_cat_id": 66416,
        "meta_element_set_no": 999,
        "meta_rev_at_epoch": 417,
        "meta_bstar": 0.00047173942,
        "meta_mean_motion_dot": 8.4e-06,
        "meta_mean_motion_ddot": 0,
        "tle_line1": "1 66416U 25258E   25343.34883707  .00000840  00000+0  47174-3 0  9999",
        "tle_line2": "2 66416  50.0045 276.3517 0003927 345.3839  14.6958 14.19348736  4177"
      },
      "geometry": {
        "type": "Point",
        "coordinates": [
          108.5590813833367,
          -20.76176639090108
        ]
      }
    },
    {
      "type": "Feature",
      "properties": {
        "norad_id": 66417,
        "name": "HULIANWANG DIGUI 13F",
        "group": "last-30-days",
        "lat": -28.389269827852544,
        "lon": 116.94876865889243,
        "alt_km": 831.6035407048375,
        "timestamp": "2025-12-10T20:49:51.343467+00:00",
        "meta_object_name": "HULIANWANG DIGUI 13F",
        "meta_object_id": "2025-258F",
        "meta_epoch": "2025-12-09T08:19:34.689792",
        "meta_mean_motion": 14.1954336,
        "meta_eccentricity": 0.0003281,
        "meta_inclination": 49.9994,
        "meta_ra_of_asc_node": 276.3221,
        "meta_arg_of_pericenter": 337.0094,
        "meta_mean_anomaly": 23.067,
        "meta_ephemeris_type": 0,
        "meta_classification_type": "U",
        "meta_norad_cat_id": 66417,
        "meta_element_set_no": 999,
        "meta_rev_at_epoch": 417,
        "meta_bstar": 0.0004116435,
        "meta_mean_motion_dot": 7.16e-06,
        "meta_mean_motion_ddot": 0,
        "tle_line1": "1 66417U 25258F   25343.34692928  .00000716  00000+0  41164-3 0  9998",
        "tle_line2": "2 66417  49.9994 276.3221 0003281 337.0094  23.0670 14.19543360  4179"
      },
      "geometry": {
        "type": "Point",
        "coordinates": [
          116.94876865889243,
          -28.389269827852544
        ]
      }
    },
    {
      "type": "Feature",
      "properties": {
        "norad_id": 66418,
        "name": "HULIANWANG DIGUI 13G",
        "group": "last-30-days",
        "lat": -45.99003218397636,
        "lon": 150.25741598409442,
        "alt_km": 830.900480697972,
        "timestamp": "2025-12-10T20:49:51.343479+00:00",
        "meta_object_name": "HULIANWANG DIGUI 13G",
        "meta_object_id": "2025-258G",
        "meta_epoch": "2025-12-09T09:52:43.669056",
        "meta_mean_motion": 14.19995679,
        "meta_eccentricity": 0.00047642,
        "meta_inclination": 50.0018,
        "meta_ra_of_asc_node": 275.9967,
        "meta_arg_of_pericenter": 355.5056,
        "meta_mean_anomaly": 4.5812,
        "meta_ephemeris_type": 0,
        "meta_classification_type": "U",
        "meta_norad_cat_id": 66418,
        "meta_element_set_no": 999,
        "meta_rev_at_epoch": 418,
        "meta_bstar": 0.00034781431,
        "meta_mean_motion_dot": 5.87e-06,
        "meta_mean_motion_ddot": 0,
        "tle_line1": "1 66418U 25258G   25343.41161654  .00000587  00000+0  34781-3 0  9997",
        "tle_line2": "2 66418  50.0018 275.9967 0004764 355.5056   4.5812 14.19995679  4189"
      },
      "geometry": {
        "type": "Point",
        "coordinates": [
          150.25741598409442,
          -45.99003218397636
        ]
      }
    }
  ]
}